{"type": "FeatureCollection", "features": [ {"type": "Feature", "properties": {"norad_id": 42741, "name": "EUTELSAT 172B", "group": "eutelsat", "lat": -0.00040142201841254836, "lon": -42.6087798234595, "alt_km": 35785.829636501825, "timestamp": "2025-12-03T04:52:29.312910+00:00", "meta": {"OBJECT_NAME": "EUTELSAT 172B", "OBJECT_ID": "2017-029B", "EPOCH": "2025-12-02T09:32:38.562720", "MEAN_MOTION": 1.00270978, "ECCENTRICITY": 2.231e-05, "INCLINATION": 0.0165, "RA_OF_ASC_NODE": 133.0464, "ARG_OF_PERICENTER": 122.4326, "MEAN_ANOMALY": 131.1829, "EPHEMERIS_TYPE": 0, "CLASSIFICATION_TYPE": "U", "NORAD_CAT_ID": 42741, "ELEMENT_SET_NO": 999, "REV_AT_EPOCH": 3175, "BSTAR": 0, "MEAN_MOTION_DOT": 1.5e-07, "MEAN_MOTION_DDOT": 0}, "tle": {"line1": "1 42741U 17029B   25336.39766855  .00000015  00000+0  00000+0 0  9999", "line2": "2 42741   0.0165 133.0464 0000223 122.4326 131.1829  1.00270978 31755"}}, "geometry": {"type": "Point", "coordinates": [-42.6087798234595, -0.00040142201841254836]}}, {"type": "Feature", "properties": {"norad_id": 44334, "name": "EUTELSAT 7C", "group": "eutelsat", "lat": -0.04701527228525224, "lon": 152.3464559038869, "alt_km": 35784.1003603019, "timestamp": "2025-12-03T04:52:29.312922+00:00", "meta": {"OBJECT_NAME": "EUTELSAT 7C", "OBJECT_ID": "2019-034B", "EPOCH": "2025-12-02T13:49:02.339328", "MEAN_MOTION": 1.00271324, "ECCENTRICITY": 0.00034615, "INCLINATION": 0.0771, "RA_OF_ASC_NODE": 180.865, "ARG_OF_PERICENTER": 53.2233, "MEAN_ANOMALY": 51.8439, "EPHEMERIS_TYPE": 0, "CLASSIFICATION_TYPE": "U", "NORAD_CAT_ID": 44334, "ELEMENT_SET_NO": 999, "REV_AT_EPOCH": 486, "BSTAR": 0, "MEAN_MOTION_DOT": 6.9e-07, "MEAN_MOTION_DDOT": 0}, "tle": {"line1": "1 44334U 19034B   25336.57572152  .00000069  00000+0  00000+0 0  9991", "line2": "2 44334   0.0771 180.8650 0003461  53.2233  51.8439  1.00271324  4863"}}, "geometry": {"type": "Point", "coordinates": [152.3464559038869, -0.04701527228525224]}}, {"type": "Feature", "properties": {"norad_id": 44624, "name": "EUTELSAT 5 WEST B", "group": "eutelsat", "lat": 0.006907269790413154, "lon": 140.36673524202791, "alt_km": 35791.72138654609, "timestamp": "2025-12-03T04:52:29.312937+00:00", "meta": {"OBJECT_NAME": "EUTELSAT 5 WEST B", "OBJECT_ID": "2019-067A", "EPOCH": "2025-12-02T18:48:38.705184", "MEAN_MOTION": 1.00272705, "ECCENTRICITY": 0.000367, "INCLINATION": 0.0722, "RA_OF_ASC_NODE": 327.0579, "ARG_OF_PERICENTER": 285.6861, "MEAN_ANOMALY": 96.3127, "EPHEMERIS_TYPE": 0, "CLASSIFICATION_TYPE": "U", "NORAD_CAT_ID": 44624, "ELEMENT_SET_NO": 999, "REV_AT_EPOCH": 2246, "BSTAR": 0, "MEAN_MOTION_DOT": -2.2e-07, "MEAN_MOTION_DDOT": 0}, "tle": {"line1": "1 44624U 19067A   25336.78378131 -.00000022  00000+0  00000+0 0  9993", "line2": "2 44624   0.0722 327.0579 0003670 285.6861  96.3127  1.00272705 22464"}}, "geometry": {"type": "Point", "coordinates": [140.36673524202791, 0.006907269790413154]}}, {"type": "Feature", "properties": {"norad_id": 45027, "name": "EUTELSAT KONNECT", "group": "eutelsat", "lat": 0.04708638843468402, "lon": 152.57231219584406, "alt_km": 35789.28862217574, "timestamp": "2025-12-03T04:52:29.312951+00:00", "meta": {"OBJECT_NAME": "EUTELSAT KONNECT", "OBJECT_ID": "2020-005B", "EPOCH": "2025-12-02T18:40:38.741952", "MEAN_MOTION": 1.00272455, "ECCENTRICITY": 0.0001657, "INCLINATION": 0.0677, "RA_OF_ASC_NODE": 100.3111, "ARG_OF_PERICENTER": 171.7802, "MEAN_ANOMALY": 87.1432, "EPHEMERIS_TYPE": 0, "CLASSIFICATION_TYPE": "U", "NORAD_CAT_ID": 45027, "ELEMENT_SET_NO": 999, "REV_AT_EPOCH": 2235, "BSTAR": 0, "MEAN_MOTION_DOT": 7e-07, "MEAN_MOTION_DDOT": 0}, "tle": {"line1": "1 45027U 20005B   25336.77822618  .00000070  00000+0  00000+0 0  9990", "line2": "2 45027   0.0677 100.3111 0001657 171.7802  87.1432  1.00272455 22355"}}, "geometry": {"type": "Point", "coordinates": [152.57231219584406, 0.04708638843468402]}}, {"type": "Feature", "properties": {"norad_id": 49056, "name": "EUTELSAT QUANTUM", "group": "eutelsat", "lat": -0.01474539108013567, "lon": -166.93965649626847, "alt_km": 35781.287693458595, "timestamp": "2025-12-03T04:52:29.312963+00:00", "meta": {"OBJECT_NAME": "EUTELSAT QUANTUM", "OBJECT_ID": "2021-069B", "EPOCH": "2025-12-02T19:15:38.813184", "MEAN_MOTION": 1.00271493, "ECCENTRICITY": 0.0003737, "INCLINATION": 0.0166, "RA_OF_ASC_NODE": 9.4688, "ARG_OF_PERICENTER": 255.9868, "MEAN_ANOMALY": 143.067, "EPHEMERIS_TYPE": 0, "CLASSIFICATION_TYPE": "U", "NORAD_CAT_ID": 49056, "ELEMENT_SET_NO": 999, "REV_AT_EPOCH": 1595, "BSTAR": 0, "MEAN_MOTION_DOT": 1.46e-06, "MEAN_MOTION_DDOT": 0}, "tle": {"line1": "1 49056U 21069B   25336.80253256  .00000146  00000+0  00000+0 0  9991", "line2": "2 49056   0.0166   9.4688 0003737 255.9868 143.0670  1.00271493 15955"}}, "geometry": {"type": "Point", "coordinates": [-166.93965649626847, -0.01474539108013567]}}, {"type": "Feature", "properties": {"norad_id": 53765, "name": "EUTELSAT KONNECT VHTS", "group": "eutelsat", "lat": 0.03659606399071351, "lon": 148.05060369581687, "alt_km": 35785.17415449522, "timestamp": "2025-12-03T04:52:29.312974+00:00", "meta": {"OBJECT_NAME": "EUTELSAT KONNECT VHTS", "OBJECT_ID": "2022-110A", "EPOCH": "2025-12-02T18:48:38.705184", "MEAN_MOTION": 1.00268775, "ECCENTRICITY": 0.0002757, "INCLINATION": 0.059, "RA_OF_ASC_NODE": 107.6754, "ARG_OF_PERICENTER": 121.6991, "MEAN_ANOMALY": 127.364, "EPHEMERIS_TYPE": 0, "CLASSIFICATION_TYPE": "U", "NORAD_CAT_ID": 53765, "ELEMENT_SET_NO": 999, "REV_AT_EPOCH": 485, "BSTAR": 0, "MEAN_MOTION_DOT": 3.7e-07, "MEAN_MOTION_DDOT": 0}, "tle": {"line1": "1 53765U 22110A   25336.78378131  .00000037  00000+0  00000+0 0  9997", "line2": "2 53765   0.0590 107.6754 0002757 121.6991 127.3640  1.00268775  4858"}}, "geometry": {"type": "Point", "coordinates": [148.05060369581687, 0.03659606399071351]}}, {"type": "Feature", "properties": {"norad_id": 54048, "name": "EUTELSAT HOTBIRD 13F", "group": "eutelsat", "lat": -0.05217271975694129, "lon": 158.40306753101763, "alt_km": 35793.859422724265, "timestamp": "2025-12-03T04:52:29.312986+00:00", "meta": {"OBJECT_NAME": "EUTELSAT HOTBIRD 13F", "OBJECT_ID": "2022-134A", "EPOCH": "2025-12-02T17:16:16.375008", "MEAN_MOTION": 1.00271339, "ECCENTRICITY": 0.0001918, "INCLINATION": 0.0545, "RA_OF_ASC_NODE": 288.9977, "ARG_OF_PERICENTER": 66.468, "MEAN_ANOMALY": 348.4275, "EPHEMERIS_TYPE": 0, "CLASSIFICATION_TYPE": "U", "NORAD_CAT_ID": 54048, "ELEMENT_SET_NO": 999, "REV_AT_EPOCH": 1140, "BSTAR": 0, "MEAN_MOTION_DOT": 1.07e-06, "MEAN_MOTION_DDOT": 0}, "tle": {"line1": "1 54048U 22134A   25336.71963397  .00000107  00000+0  00000+0 0  9993", "line2": "2 54048   0.0545 288.9977 0001918  66.4680 348.4275  1.00271339 11401"}}, "geometry": {"type": "Point", "coordinates": [158.40306753101763, -0.05217271975694129]}}, {"type": "Feature", "properties": {"norad_id": 54225, "name": "EUTELSAT HOTBIRD 13G", "group": "eutelsat", "lat": -0.05190194458009772, "lon": 158.3794698377839, "alt_km": 35778.22082020931, "timestamp": "2025-12-03T04:52:29.312997+00:00", "meta": {"OBJECT_NAME": "EUTELSAT HOTBIRD 13G", "OBJECT_ID": "2022-146A", "EPOCH": "2025-12-02T17:16:16.375008", "MEAN_MOTION": 1.00271061, "ECCENTRICITY": 0.0002127, "INCLINATION": 0.048, "RA_OF_ASC_NODE": 239.1654, "ARG_OF_PERICENTER": 305.0955, "MEAN_ANOMALY": 159.6263, "EPHEMERIS_TYPE": 0, "CLASSIFICATION_TYPE": "U", "NORAD_CAT_ID": 54225, "ELEMENT_SET_NO": 999, "REV_AT_EPOCH": 549, "BSTAR": 0, "MEAN_MOTION_DOT": 1.07e-06, "MEAN_MOTION_DDOT": 0}, "tle": {"line1": "1 54225U 22146A   25336.71963397  .00000107  00000+0  00000+0 0  9993", "line2": "2 54225   0.0480 239.1654 0002127 305.0955 159.6263  1.00271061  5499"}}, "geometry": {"type": "Point", "coordinates": [158.3794698377839, -0.05190194458009772]}}, {"type": "Feature", "properties": {"norad_id": 54259, "name": "EUTELSAT 10B", "group": "eutelsat", "lat": 0.0386309656951925, "lon": 155.40194103738102, "alt_km": 35782.85269225732, "timestamp": "2025-12-03T04:52:29.313010+00:00", "meta": {"OBJECT_NAME": "EUTELSAT 10B", "OBJECT_ID": "2022-157A", "EPOCH": "2025-12-02T18:40:38.741952", "MEAN_MOTION": 1.00268254, "ECCENTRICITY": 0.000106, "INCLINATION": 0.0596, "RA_OF_ASC_NODE": 104.1323, "ARG_OF_PERICENTER": 71.1589, "MEAN_ANOMALY": 186.7669, "EPHEMERIS_TYPE": 0, "CLASSIFICATION_TYPE": "U", "NORAD_CAT_ID": 54259, "ELEMENT_SET_NO": 999, "REV_AT_EPOCH": 1105, "BSTAR": 0, "MEAN_MOTION_DOT": 8.8e-07, "MEAN_MOTION_DDOT": 0}, "tle": {"line1": "1 54259U 22157A   25336.77822618  .00000088  00000+0  00000+0 0  9996", "line2": "2 54259   0.0596 104.1323 0001060  71.1589 186.7669  1.00268254 11057"}}, "geometry": {"type": "Point", "coordinates": [155.40194103738102, 0.0386309656951925]}}, {"type": "Feature", "properties": {"norad_id": 59346, "name": "EUTELSAT 36D", "group": "eutelsat", "lat": -0.024426091535419435, "lon": -178.7642588374528, "alt_km": 35787.654858993585, "timestamp": "2025-12-03T04:52:29.313021+00:00", "meta": {"OBJECT_NAME": "EUTELSAT 36D", "OBJECT_ID": "2024-059A", "EPOCH": "2025-12-02T18:24:38.544192", "MEAN_MOTION": 1.00270388, "ECCENTRICITY": 6.12e-05, "INCLINATION": 0.0221, "RA_OF_ASC_NODE": 336.5365, "ARG_OF_PERICENTER": 323.5986, "MEAN_ANOMALY": 83.7439, "EPHEMERIS_TYPE": 0, "CLASSIFICATION_TYPE": "U", "NORAD_CAT_ID": 59346, "ELEMENT_SET_NO": 999, "REV_AT_EPOCH": 617, "BSTAR": 0, "MEAN_MOTION_DOT": 0, "MEAN_MOTION_DDOT": 0}, "tle": {"line1": "1 59346U 24059A   25336.76711278  .00000000  00000+0  00000+0 0  9993", "line2": "2 59346   0.0221 336.5365 0000612 323.5986  83.7439  1.00270388  6177"}}, "geometry": {"type": "Point", "coordinates": [-178.7642588374528, -0.024426091535419435]}}]}